[{"OBJECT_NAME":"STARLINK-5382","OBJECT_ID":"2022-177A","EPOCH":"2026-03-09T22:00:01.999584","MEAN_MOTION":15.06469527,"ECCENTRICITY":0.00021824,"INCLINATION":42.9996,"RA_OF_ASC_NODE":132.3134,"ARG_OF_PERICENTER":270.654,"MEAN_ANOMALY":208.5569,"EPHEMERIS_TYPE":0,"CLASSIFICATION_TYPE":"U","NORAD_CAT_ID":54820,"ELEMENT_SET_NO":999,"REV_AT_EPOCH":577,"BSTAR":0.00073343055,"MEAN_MOTION_DOT":0.00010814,"MEAN_MOTION_DDOT":0},{"OBJECT_NAME":"FENGYUN 1C DEB","OBJECT_ID":"1999-025BBA","EPOCH":"2026-03-08T04:01:46.595424","MEAN_MOTION":14.68382206,"ECCENTRICITY":0.01906782,"INCLINATION":99.0027,"RA_OF_ASC_NODE":196.6188,"ARG_OF_PERICENTER":258.0888,"MEAN_ANOMALY":99.8879,"EPHEMERIS_TYPE":0,"CLASSIFICATION_TYPE":"U","NORAD_CAT_ID":30960,"ELEMENT_SET_NO":999,"REV_AT_EPOCH":99951,"BSTAR":0.0022197351,"MEAN_MOTION_DOT":0.00016894,"MEAN_MOTION_DDOT":0}]
